[{"OBJECT_NAME":"NUSTAR","OBJECT_ID":"2012-031A","EPOCH":"2026-03-10T00:00:02.999808","MEAN_MOTION":15.07728841,"ECCENTRICITY":0.00071224,"INCLINATION":6.0266,"RA_OF_ASC_NODE":57.5732,"ARG_OF_PERICENTER":70.6924,"MEAN_ANOMALY":331.0724,"EPHEMERIS_TYPE":0,"CLASSIFICATION_TYPE":"U","NORAD_CAT_ID":38358,"ELEMENT_SET_NO":999,"REV_AT_EPOCH":130,"BSTAR":0.0011080621,"MEAN_MOTION_DOT":0.00018332,"MEAN_MOTION_DDOT":0},{"OBJECT_NAME":"STARLINK-4043","OBJECT_ID":"2022-062G","EPOCH":"2026-03-09T07:41:35.684160","MEAN_MOTION":15.0883873,"ECCENTRICITY":0.00013473,"INCLINATION":53.2193,"RA_OF_ASC_NODE":36.0934,"ARG_OF_PERICENTER":102.9136,"MEAN_ANOMALY":257.2007,"EPHEMERIS_TYPE":0,"CLASSIFICATION_TYPE":"U","NORAD_CAT_ID":52836,"ELEMENT_SET_NO":999,"REV_AT_EPOCH":20572,"BSTAR":7.4020766e-5,"MEAN_MOTION_DOT":8.9e-6,"MEAN_MOTION_DDOT":0}]
